EUTELSAT 7A             
1 28187U 04008A   25336.97469541  .00000120  00000+0  00000+0 0  9993
2 28187   5.3314  74.3574 0001529 209.3262   0.0924  1.00273894 79381
EUTELSAT 174A           
1 28924U 05052A   25337.17955609  .00000027  00000+0  00000+0 0  9996
2 28924   3.7220  78.9609 0006574 172.5065  59.4252  1.00270801 50368
EUTELSAT HOTBIRD 13B    
1 29270U 06032A   25337.29430341  .00000174  00000+0  00000+0 0  9997
2 29270   1.1543  84.4414 0003734 164.1192 322.8591  1.00271398 45349
EUTELSAT HOTBIRD 13C    
1 33459U 08065A   25337.27991666 -.00000253  00000+0  00000+0 0  9998
2 33459   2.4452  81.5203 0001260 188.6074 223.1435  1.00048966 45389
EUTELSAT 36B            
1 36101U 09065A   25337.22644302  .00000131  00000+0  00000+0 0  9997
2 36101   0.0401 337.6760 0006467 273.9492 312.7127  1.00269333 58743
EUTELSAT KA-SAT 9A      
1 37258U 10069A   25337.07551067  .00000081  00000+0  00000+0 0  9999
2 37258   0.0516 331.8403 0001123 221.7679 274.7556  1.00272059 42044
EUTELSAT 7 WEST A       
1 37816U 11051A   25337.37522407 -.00000042  00000+0  00000+0 0  9998
2 37816   0.0642   5.9296 0006023 220.2959 334.0191  1.00271414 51917
EUTELSAT 16A            
1 37836U 11057A   25337.29092339  .00000123  00000+0  00000+0 0  9992
2 37836   0.0591 347.1689 0006048 271.8127 294.1445  1.00273705  5366
